{
    "links": {
        "self": "http://www.neowsapp.com/rest/v1/neo/3325677?api_key=iIulBulltgU6a56xZRHN4H3l9WmuAYTsLGpBGhQ2"
    },
    "id": "3325677",
    "neo_reference_id": "3325677",
    "name": "(2006 EH1)",
    "designation": "2006 EH1",
    "nasa_jpl_url": "http://ssd.jpl.nasa.gov/sbdb.cgi?sstr=3325677",
    "absolute_magnitude_h": 26.5,
    "estimated_diameter": {
        "kilometers": {
            "estimated_diameter_min": 0.0133215567,
            "estimated_diameter_max": 0.0297879063
        },
        "meters": {
            "estimated_diameter_min": 13.3215566698,
            "estimated_diameter_max": 29.7879062798
        },
        "miles": {
            "estimated_diameter_min": 0.008277629,
            "estimated_diameter_max": 0.0185093411
        },
        "feet": {
            "estimated_diameter_min": 43.7058959846,
            "estimated_diameter_max": 97.7293544391
        }
    },
    "is_potentially_hazardous_asteroid": false,
    "close_approach_data": [
        {
            "close_approach_date": "2006-03-07",
            "close_approach_date_full": "2006-Mar-07 08:14",
            "epoch_date_close_approach": 1141719240000,
            "relative_velocity": {
                "kilometers_per_second": "13.4555551856",
                "kilometers_per_hour": "48439.9986681967",
                "miles_per_hour": "30098.7313946915"
            },
            "miss_distance": {
                "astronomical": "0.0035612894",
                "lunar": "1.3853415766",
                "kilometers": "532761.308693578",
                "miles": "331042.5265762564"
            },
            "orbiting_body": "Moon"
        },
        {
            "close_approach_date": "2006-03-07",
            "close_approach_date_full": "2006-Mar-07 12:06",
            "epoch_date_close_approach": 1141733160000,
            "relative_velocity": {
                "kilometers_per_second": "12.5946946118",
                "kilometers_per_hour": "45340.9006023972",
                "miles_per_hour": "28173.072377084"
            },
            "miss_distance": {
                "astronomical": "0.0050312625",
                "lunar": "1.9571611125",
                "kilometers": "752666.153410875",
                "miles": "467685.060885075"
            },
            "orbiting_body": "Earth"
        }
    ],
    "orbital_data": {
        "orbit_id": "6",
        "orbit_determination_date": "2017-04-06 09:08:55",
        "first_observation_date": "2006-03-05",
        "last_observation_date": "2006-03-06",
        "data_arc_in_days": 1,
        "observations_used": 14,
        "orbit_uncertainty": "8",
        "minimum_orbit_intersection": ".00370031",
        "jupiter_tisserand_invariant": "3.582",
        "epoch_osculation": "2453800.5",
        "eccentricity": ".569681126218466",
        "semi_major_axis": "2.033486531919656",
        "inclination": "5.49910604009668",
        "ascending_node_longitude": "164.1635200108753",
        "orbital_period": "1059.157089200841",
        "perihelion_distance": ".8750476342655839",
        "perihelion_argument": "49.92230113673266",
        "aphelion_distance": "3.191925429573728",
        "perihelion_time": "2452777.220145300659",
        "mean_anomaly": "347.8055818610575",
        "mean_motion": ".3398929239775266",
        "equinox": "J2000",
        "orbit_class": {
            "orbit_class_type": "APO",
            "orbit_class_description": "Near-Earth asteroid orbits which cross the Earth’s orbit similar to that of 1862 Apollo",
            "orbit_class_range": "a (semi-major axis) > 1.0 AU; q (perihelion) < 1.017 AU"
        }
    },
    "is_sentry_object": false
}